OBJECT_NAME,OBJECT_ID,EPOCH,MEAN_MOTION,ECCENTRICITY,INCLINATION,RA_OF_ASC_NODE,ARG_OF_PERICENTER,MEAN_ANOMALY,EPHEMERIS_TYPE,CLASSIFICATION_TYPE,NORAD_CAT_ID,ELEMENT_SET_NO,REV_AT_EPOCH,BSTAR,MEAN_MOTION_DOT,MEAN_MOTION_DDOT
CUBEBUG-2 (LO-74),2013-066AA,2026-07-21T08:34:07.123296,14.93994868,.00555093,97.8921,151.4890,274.4580,85.0299,0,U,39440,999,68209,.21189267E-3,.2264E-4,0
FUNCUBE-1 (AO-73),2013-066AE,2026-07-21T09:21:20.708928,15.09875397,.0038113,97.8302,174.5633,87.5834,272.9757,0,U,39444,999,68482,.37014469E-3,.6028E-4,0
UWE-3,2013-066AG,2026-07-21T08:50:45.003552,14.97229762,.00477439,97.8727,158.6819,203.3871,156.5179,0,U,39446,999,68269,.24278441E-3,.2812E-4,0
UNISAT-6,2014-033C,2026-07-21T08:29:25.955232,14.88383865,.0043745,97.7918,354.4749,317.0875,42.6932,0,U,40012,999,65124,.17518125E-3,.1594E-4,0
DUCHIFAT-1,2014-033M,2026-07-21T14:25:09.036192,15.72373633,.00035964,98.0415,266.8095,228.2651,131.8303,0,U,40021,999,66114,.12057999E-2,.162508E-2,0
QB50P1,2014-033R,2026-07-21T11:33:24.182496,15.18729218,.00105476,98.0974,216.0449,106.4326,253.8066,0,U,40025,999,65823,.33714792E-3,.6934E-4,0
LILACSAT-2,2015-049K,2026-07-21T13:45:01.224576,15.52512878,.00086008,97.4629,240.7411,122.9551,237.2530,0,U,40908,999,60108,.26628447E-3,.1625E-3,0
FOX-1A (AO-85),2015-058D,2026-07-21T15:01:28.785504,14.91117337,.01329113,64.7738,171.9444,43.3691,317.7787,0,U,40967,999,11870,.28509073E-3,.3179E-4,0
CAS-2T & KS-1Q,2016-066G,2026-07-21T04:13:44.340960,14.44777292,.03419271,98.3809,277.5235,26.6345,335.1967,0,U,41847,999,50970,.85958599E-4,.551E-5,0
RADFXSAT (FOX-1B),2017-073E,2026-07-21T12:48:53.501184,15.13115794,.01485308,97.4661,69.0490,209.4169,149.8644,0,U,43017,999,47058,.26202585E-3,.6018E-4,0
DIWATA-2B,2018-084H,2026-07-21T13:53:57.022944,15.00576809,.00124535,98.1222,40.2948,64.6346,295.6165,0,U,43678,999,42137,.84702829E-4,.1005E-4,0
ES'HAIL 2,2018-090A,2026-07-21T14:54:47.983680,1.00273112,.00024379,0.0117,347.1668,166.8289,34.8792,0,U,43700,999,2802,0,.146E-5,0
FOX-1CLIFF (AO-95),2018-099N,2026-07-21T14:39:15.941088,15.27362417,.00078185,97.4363,262.7422,214.4341,145.6393,0,U,43770,999,41847,.38212393E-3,.10176E-3,0
ITASAT,2018-099AE,2026-07-21T14:24:04.491072,15.19432172,.0011284,97.4008,253.4299,225.5068,134.5245,0,U,43786,999,41813,.26606929E-3,.5579E-4,0
JY1SAT (JO-97),2018-099AX,2026-07-21T14:22:20.130240,15.34657827,.00073116,97.4107,265.5735,139.1474,221.0318,0,U,43803,999,41890,.49813489E-3,.16681E-3,0
UWE-4,2018-111E,2026-07-21T07:11:24.063648,15.48073251,.00072099,97.5824,132.3140,172.1353,188.0012,0,U,43880,999,41605,.50882734E-3,.26641E-3,0
TIANYAN 01,2019-093C,2026-07-21T15:25:37.437888,14.86568109,.00129707,97.7513,274.0327,340.2699,19.8014,0,U,44881,999,35653,.81715941E-4,.671E-5,0
RS-44 & BREEZE-KM R/B,2019-096E,2026-07-21T07:49:59.749536,12.79748807,.0218395,82.5240,317.0216,64.7217,297.6340,0,U,44909,999,30671,-.47847246E-4,.1E-7,0
SALSAT,2020-068K,2026-07-21T06:49:18.463008,15.30225780,.00098552,97.8867,207.4380,171.6754,188.4651,0,U,46495,999,32057,.19458409E-3,.5612E-4,0
XW-3 (CAS-9),2021-131B,2026-07-21T14:59:59.312256,14.41385321,.00041658,98.4982,294.8292,13.6599,346.4702,0,U,50466,999,24007,.99795535E-4,.279E-5,0
GREENCUBE (IO-117),2022-080E,2026-07-21T06:26:53.364480,6.42583331,.0009377,70.1384,286.3946,282.6707,77.2904,0,U,53109,999,9425,0,-.3E-7,0
UMKA 1 (RS40S),2023-091G,2026-07-21T15:10:49.598400,15.21166962,.00123829,97.5028,261.2016,7.6583,352.4839,0,U,57172,999,16924,.23790953E-3,.5241E-4,0
CUBESX-HSE 3 (RS42S),2023-091N,2026-07-21T14:29:19.535712,15.31986103,.00090391,97.5069,268.6419,337.6192,22.4654,0,U,57178,999,16969,.38902756E-3,.11955E-3,0
MONITOR-3 (RS58S),2023-091Q,2026-07-21T15:22:21.779904,15.28451612,.00103125,97.5061,266.3510,346.2165,13.8792,0,U,57180,999,16955,.33457562E-3,.9205E-4,0
MONITOR-4 (RS57S),2023-091S,2026-07-21T14:49:25.780800,15.28539218,.00103333,97.5056,266.3011,346.6104,13.4860,0,U,57182,999,16955,.33278179E-3,.918E-4,0
MONITOR-2 (RS39S),2023-091U,2026-07-21T15:10:01.313760,15.19191493,.00107318,97.5050,260.6946,2.0683,358.0594,0,U,57184,999,16918,.18863928E-3,.3905E-4,0
SVYATOBOR 1 (RS60S),2023-091X,2026-07-21T14:18:11.765664,15.27130360,.00080925,97.5068,266.6124,340.8777,19.2157,0,U,57187,999,16956,.30073904E-3,.7934E-4,0
VIZARD-METEO (RS38S),2023-091Z,2026-07-21T14:20:28.090176,15.37005342,.00052271,97.5069,272.7947,311.6611,48.4185,0,U,57189,999,16997,.43673685E-3,.15746E-3,0
POLYTECH-UNIVERSE 3 (RS46S),2023-091AB,2026-07-21T14:07:33.420864,15.19403903,.00154565,97.5027,260.1558,16.3456,343.8274,0,U,57191,999,16917,.20155343E-3,.421E-4,0
UTMN 2 (RS27S),2023-091AP,2026-07-21T14:28:00.865920,15.32800698,.00061781,97.5066,270.3165,324.2847,35.7981,0,U,57203,999,16981,.37602671E-3,.11843E-3,0
