CUBEBUG-2 (LO-74)
1 39440U 13066AA  26202.35702689  .00002264  00000-0  21189-3 0  9996
2 39440  97.8921 151.4890 0055509 274.4580  85.0299 14.93994868682099
FUNCUBE-1 (AO-73)
1 39444U 13066AE  26202.38982302  .00006028  00000-0  37014-3 0  9991
2 39444  97.8302 174.5633 0038113  87.5834 272.9757 15.09875397684826
UWE-3
1 39446U 13066AG  26202.36857643  .00002812  00000-0  24278-3 0  9995
2 39446  97.8727 158.6819 0047744 203.3871 156.5179 14.97229762682690
UNISAT-6
1 40012U 14033C   26202.35377263  .00001594  00000-0  17518-3 0  9990
2 40012  97.7918 354.4749 0043745 317.0875  42.6932 14.88383865651248
DUCHIFAT-1
1 40021U 14033M   26202.60079903  .00162508  00000-0  12058-2 0  9994
2 40021  98.0415 266.8095 0003596 228.2651 131.8303 15.72373633661148
LILACSAT-2
1 40908U 15049K   26202.57293084  .00016250  00000-0  26628-3 0  9991
2 40908  97.4629 240.7411 0008601 122.9551 237.2530 15.52512878601080
CAS-2T & KS-1Q
1 41847U 16066G   26202.17620765  .00000551  00000-0  85959-4 0  9990
2 41847  98.3809 277.5235 0341927  26.6345 335.1967 14.44777292509708
FOX-1B (AO-91)
1 43017U 17073E   26202.53395256  .00006018  00000-0  26203-3 0  9994
2 43017  97.4661  69.0490 0148531 209.4169 149.8644 15.13115794470588
FUNCUBE-3 (EO-79)/QB50P1
1 40025U 14033R   26202.48152989  .00006934  00000-0  33715-3 0  9994
2 40025  98.0974 216.0449 0010548 106.4326 253.8066 15.18729218658234
FOX-1A (AO-85)
1 40967U 15058D   26202.62602761  .00003179  00000-0  28509-3 0  9994
2 40967  64.7738 171.9444 0132911  43.3691 317.7787 14.91117337118700
DIWATA-2B (PO-101)
1 43678U 18084H   26202.57913221  .00001005  00000-0  84703-4 0  9993
2 43678  98.1222  40.2948 0012454  64.6346 295.6165 15.00576809421378
ESHAIL-2
1 43700U 18090A   26202.62138870  .00000146  00000-0  00000-0 0  9990
2 43700   0.0117 347.1668 0002438 166.8289  34.8792  1.00273112 28029
ITASAT-1
1 43786U 18099AE  26202.60005198  .00005579  00000-0  26607-3 0  9996
2 43786  97.4008 253.4299 0011284 225.5068 134.5245 15.19432172418132
FOX-1CLIFF (AO-95)
1 43770U 18099N   26202.61060117  .00010176  00000-0  38212-3 0  9996
2 43770  97.4363 262.7422 0007818 214.4341 145.6393 15.27362417418476
JY1SAT (JO-97)
1 43803U 18099AX  26202.59884410  .00016681  00000-0  49813-3 0  9996
2 43803  97.4107 265.5735 0007312 139.1474 221.0318 15.34657827418900
UWE-4
1 43880U 18111E   26202.29958407  .00026641  00000-0  50883-3 0  9997
2 43880  97.5824 132.3140 0007210 172.1353 188.0012 15.48073251416058
CAS-6 (TO-108)
1 44881U 19093C   26202.64279442  .00000671  00000-0  81716-4 0  9998
2 44881  97.7513 274.0327 0012971 340.2699  19.8014 14.86568109356530
DOSAAF-85 (RS-44)
1 44909U 19096E   26202.32638599  .00000001  00000-0 -47847-4 0  9994
2 44909  82.5240 317.0216 0218395  64.7217 297.6340 12.79748807306715
SALSAT (TUBSAT 22)
1 46495U 20068K   26202.28424147  .00005612  00000-0  19458-3 0  9992
2 46495  97.8867 207.4380 0009855 171.6754 188.4651 15.30225780320570
CAMSAT XW-3 (CAS-9)
1 50466U 21131B   26202.62499204  .00000279  00000-0  99796-4 0  9999
2 50466  98.4982 294.8292 0004166  13.6599 346.4702 14.41385321240070
ROBUSTA 1F (MTCUBE-2)
1 53109U 22080E   26202.26867320 -.00000003  00000-0  00000-0 0  9990
2 53109  70.1384 286.3946 0009377 282.6707  77.2904  6.42583331 94253
UMKA-1 (RS40S)
1 57172U 23091G   26202.63251850  .00005241  00000-0  23791-3 0  9996
2 57172  97.5028 261.2016 0012383   7.6583 352.4839 15.21166962169244
CUBESX-HSE-3 (RS42S)
1 57178U 23091N   26202.60369833  .00011955  00000-0  38903-3 0  9990
2 57178  97.5069 268.6419 0009039 337.6192  22.4654 15.31986103169695
MONITOR-3 (RS58S)
1 57180U 23091Q   26202.64052986  .00009205  00000-0  33458-3 0  9990
2 57180  97.5061 266.3510 0010313 346.2165  13.8792 15.28451612169550
MONITOR-4 (RS57S)
1 57182U 23091S   26202.61765950  .00009180  00000-0  33278-3 0  9993
2 57182  97.5056 266.3011 0010333 346.6104  13.4860 15.28539218169552
MONITOR-2 (RS39S)
1 57184U 23091U   26202.63195965  .00003905  00000-0  18864-3 0  9993
2 57184  97.5050 260.6946 0010732   2.0683 358.0594 15.19191493169180
SVYATOBOR-1 (RS60S)
1 57187U 23091X   26202.59596951  .00007934  00000-0  30074-3 0  9994
2 57187  97.5068 266.6124 0008093 340.8777  19.2157 15.27130360169568
VIZARD-METEO (RS38S)
1 57189U 23091Z   26202.59754734  .00015746  00000-0  43674-3 0  9991
2 57189  97.5069 272.7947 0005227 311.6611  48.4185 15.37005342169973
UTMN-2 (RS27S)
1 57203U 23091AP  26202.60278780  .00011843  00000-0  37603-3 0  9991
2 57203  97.5066 270.3165 0006178 324.2847  35.7981 15.32800698169818
POLYTECH UNIVERSE-3 (RS46S)
1 57191U 23091AB  26202.58858126  .00004210  00000-0  20155-3 0  9996
2 57191  97.5027 260.1558 0015457  16.3456 343.8274 15.19403903169179
